DUBAISAT-1              
1 35682U 09041B   26192.84737047  .00000444  00000+0  73279-4 0  9991
2 35682  98.0079 325.8393 0010183 359.6236   0.4964 14.75163641908737
OCEANSAT-2              
1 35931U 09051A   26192.93372649 -.00000135  00000+0 -66656-4 0  9992
2 35931  98.2318 177.3146 0017127 162.9323 197.2423 13.99656511882795
WORLDVIEW-2 (WV-2)      
1 35946U 09055A   26192.93637693  .00000038  00000+0  27035-4 0  9993
2 35946  98.4757 266.0489 0005177 137.7380 222.4207 14.37906390879200
SMOS                    
1 36036U 09059A   26192.51304273  .00000163  00000+0  65861-4 0  9995
2 36036  98.4426  19.4914 0001127  95.3171 264.8146 14.39734682876951
YAOGAN-7                
1 36110U 09069A   26192.66347035  .00000219  00000+0  37582-4 0  9999
2 36110  98.0040  78.3759 0023695 323.2875  36.6711 14.78033529893240
TANDEM-X                
1 36605U 10030A   26188.47915494  .00000386  00000+0  21566-4 0  9992
2 36605  97.4457 195.8973 0001887  94.3019 265.8431 15.19154052889726
CARTOSAT-2B             
1 36795U 10035A   26192.97185894  .00000507  00000+0  76320-4 0  9993
2 36795  97.9947 243.3610 0012527 108.4640 251.7934 14.78615162863511
YAOGAN-10               
1 36834U 10038A   26193.00036736  .00000334  00000+0  45032-4 0  9999
2 36834  97.8977 216.2064 0001612  82.9949 306.4156 14.85420880860891
COSMO-SKYMED 4          
1 37216U 10060A   26192.95005723  .00000966  00000+0  12791-3 0  9990
2 37216  97.8895  16.1920 0001539  84.8642 275.2746 14.82150193848238
RESOURCESAT-2           
1 37387U 11015A   26192.93415013  .00000005  00000+0  22597-4 0  9995
2 37387  98.7633 260.2036 0011401 180.2445 179.8728 14.21605363789698
HAIYANG-2A              
1 37781U 11043A   26192.94271925 -.00000150  00000+0 -11494-3 0  9993
2 37781  99.3401 195.0542 0002867  38.7593 321.3761 13.73480832750057
RASAT                   
1 37791U 11044D   26192.92625274  .00000362  00000+0  71193-4 0  9999
2 37791  98.0577 283.9461 0021819 112.3076 359.0500 14.68191041796817
SRMSAT                  
1 37841U 11058D   26192.32393388  .00000351  00000+0  46525-4 0  9991
2 37841  19.9716 273.3792 0011857 108.9537 302.7584 14.11580564761239
PLEIADES 1A             
1 38012U 11076F   26192.96987583  .00000018  00000+0  13619-4 0  9996
2 38012  98.1973 267.7386 0001714  81.2380  34.2461 14.58545288775602
ZIYUAN 1-02C (ZY 1-02C) 
1 38038U 11079A   26192.99376249 -.00000045  00000+0 -59726-6 0  9994
2 38038  98.4066 259.7826 0005420 225.7368 258.1908 14.38233003762779
ARIRANG-3 (KOMPSAT-3)   
1 38338U 12025B   26192.94125457  .00000214  00000+0  51617-4 0  9992
2 38338  98.1183 149.9761 0006401  47.3930 312.7811 14.62227433754969
EXACTVIEW-1 (ADS-1B)    
1 38709U 12039C   26192.81623572  .00000040  00000+0  36711-4 0  9991
2 38709  98.9800 310.7657 0011949 100.3654 259.8872 14.24991670726217
SPOT 6                  
1 38755U 12047A   26192.96325022 -.00000044  00000+0  45217-6 0  9994
2 38755  98.2113 259.9806 0001146  82.3802 277.7527 14.58537053736664
PLEIADES 1B             
1 39019U 12068A   26192.98183530 -.00000021  00000+0  53519-5 0  9997
2 39019  98.1943 267.6912 0001631  79.8826 280.2557 14.58532716724466
GOKTURK 2               
1 39030U 12073A   26192.96796829  .00000368  00000+0  60973-4 0  9999
2 39030  97.6817  29.1569 0000915  83.4633 276.6682 14.75566533728165
LANDSAT 8               
1 39084U 13008A   26192.88325406  .00000155  00000+0  44413-4 0  9992
2 39084  98.2291 262.7240 0001333  94.2960 265.8391 14.57110491701498
SARAL                   
1 39086U 13009A   26192.90036897  .00000056  00000+0  36460-4 0  9994
2 39086  98.5554  19.1550 0001503 175.1149 185.0050 14.32895281699143
GAOFEN-1                
1 39150U 13018A   26192.93374862 -.00000212  00000+0 -23130-4 0  9992
2 39150  97.9090 264.4974 0016784 181.5996 178.5164 14.76514892711890
VNREDSAT 1              
1 39160U 13021B   26192.95257531  .00000169  00000+0  40183-4 0  9998
2 39160  97.9074 245.4166 0001635  80.3733 279.7655 14.64881309703919
ARIRANG-5 (KOMPSAT-5)   
1 39227U 13042A   26192.97363001  .00001070  00000+0  80695-4 0  9991
2 39227  97.6217  19.3267 0005595  66.9000 293.2816 15.04523462707580
SKYSAT-A                
1 39418U 13066C   26192.92535079  .00001480  00000+0  86826-4 0  9997
2 39418  97.3805 241.5341 0020183 225.2191 134.7400 15.13105178692227
DUBAISAT-2              
1 39419U 13066D   26192.91643991  .00003624  00000+0  22446-3 0  9999
2 39419  97.4572 182.4164 0009715 315.3087  44.7359 15.10362914690129
GPM-CORE                
1 39574U 14009C   26192.87439479  .00003596  00000+0  81148-4 0  9991
2 39574  64.9697 225.4163 0011018 260.9896  98.9997 15.45018729701624
SENTINEL-1A             
1 39634U 14016A   26192.98461859 -.00000120  00000+0 -15805-4 0  9994
2 39634  98.1785 200.1551 0001436  87.0298 273.1066 14.59199566653630
KAZEOSAT 1              
1 39731U 14024A   26192.93098404 -.00000082  00000+0 -12045-4 0  9998
2 39731  98.3201 264.7614 0001257  81.6148 278.5184 14.42035929642120
